{"type": "FeatureCollection", "features": [ {"type": "Feature", "properties": {"norad_id": 41774, "name": "SKYSAT-C3", "group": "resource", "lat": -27.7742535407145, "lon": -165.33981624588046, "alt_km": 439.71951967815767, "timestamp": "2025-12-10T11:33:53.048761+00:00", "meta": {"OBJECT_NAME": "SKYSAT-C3", "OBJECT_ID": "2016-058E", "EPOCH": "2025-12-10T01:20:10.885056", "MEAN_MOTION": 15.44244525, "ECCENTRICITY": 0.0001599, "INCLINATION": 96.93, "RA_OF_ASC_NODE": 17.9267, "ARG_OF_PERICENTER": 105.6106, "MEAN_ANOMALY": 254.532, "EPHEMERIS_TYPE": 0, "CLASSIFICATION_TYPE": "U", "NORAD_CAT_ID": 41774, "ELEMENT_SET_NO": 999, "REV_AT_EPOCH": 51684, "BSTAR": 0.00053807, "MEAN_MOTION_DOT": 0.0002469, "MEAN_MOTION_DDOT": 0}, "tle": {"line1": "1 41774U 16058E   25344.05568154  .00024690  00000+0  53807-3 0  9991", "line2": "2 41774  96.9300  17.9267 0001599 105.6106 254.5320 15.44244525516848"}}, "geometry": {"type": "Point", "coordinates": [-165.33981624588046, -27.7742535407145]}}, {"type": "Feature", "properties": {"norad_id": 41785, "name": "ALSAT 1B", "group": "resource", "lat": -66.15439863550787, "lon": 14.389948503403835, "alt_km": 669.1767320333784, "timestamp": "2025-12-10T11:33:53.048771+00:00", "meta": {"OBJECT_NAME": "ALSAT 1B", "OBJECT_ID": "2016-059C", "EPOCH": "2025-12-10T03:42:51.120576", "MEAN_MOTION": 14.72071692, "ECCENTRICITY": 0.0010639, "INCLINATION": 97.7813, "RA_OF_ASC_NODE": 356.0558, "ARG_OF_PERICENTER": 110.4811, "MEAN_ANOMALY": 249.754, "EPHEMERIS_TYPE": 0, "CLASSIFICATION_TYPE": "U", "NORAD_CAT_ID": 41785, "ELEMENT_SET_NO": 999, "REV_AT_EPOCH": 49276, "BSTAR": 0.00014105, "MEAN_MOTION_DOT": 8.4e-06, "MEAN_MOTION_DDOT": 0}, "tle": {"line1": "1 41785U 16059C   25344.15475834  .00000840  00000+0  14105-3 0  9996", "line2": "2 41785  97.7813 356.0558 0010639 110.4811 249.7540 14.72071692492767"}}, "geometry": {"type": "Point", "coordinates": [14.389948503403835, -66.15439863550787]}}, {"type": "Feature", "properties": {"norad_id": 41787, "name": "PATHFINDER 1", "group": "resource", "lat": 48.94074410069557, "lon": -21.709719214300556, "alt_km": 648.5807140583411, "timestamp": "2025-12-10T11:33:53.048781+00:00", "meta": {"OBJECT_NAME": "PATHFINDER 1", "OBJECT_ID": "2016-059E", "EPOCH": "2025-12-09T12:25:38.745120", "MEAN_MOTION": 14.67312716, "ECCENTRICITY": 0.0030058, "INCLINATION": 97.8139, "RA_OF_ASC_NODE": 346.4409, "ARG_OF_PERICENTER": 90.9607, "MEAN_ANOMALY": 269.5043, "EPHEMERIS_TYPE": 0, "CLASSIFICATION_TYPE": "U", "NORAD_CAT_ID": 41787, "ELEMENT_SET_NO": 999, "REV_AT_EPOCH": 49189, "BSTAR": 0.00025681, "MEAN_MOTION_DOT": 1.412e-05, "MEAN_MOTION_DDOT": 0}, "tle": {"line1": "1 41787U 16059E   25343.51780955  .00001412  00000+0  25681-3 0  9997", "line2": "2 41787  97.8139 346.4409 0030058  90.9607 269.5043 14.67312716491891"}}, "geometry": {"type": "Point", "coordinates": [-21.709719214300556, 48.94074410069557]}}, {"type": "Feature", "properties": {"norad_id": 41790, "name": "SCATSAT 1", "group": "resource", "lat": -51.16595295795638, "lon": 51.373755033494035, "alt_km": 678.7442721640236, "timestamp": "2025-12-10T11:33:53.048791+00:00", "meta": {"OBJECT_NAME": "SCATSAT 1", "OBJECT_ID": "2016-059H", "EPOCH": "2025-12-10T03:40:56.846208", "MEAN_MOTION": 14.78922317, "ECCENTRICITY": 0.0056147, "INCLINATION": 98.1464, "RA_OF_ASC_NODE": 40.7913, "ARG_OF_PERICENTER": 136.1603, "MEAN_ANOMALY": 224.4085, "EPHEMERIS_TYPE": 0, "CLASSIFICATION_TYPE": "U", "NORAD_CAT_ID": 41790, "ELEMENT_SET_NO": 999, "REV_AT_EPOCH": 7364, "BSTAR": 0.00031976, "MEAN_MOTION_DOT": 2.364e-05, "MEAN_MOTION_DDOT": 0}, "tle": {"line1": "1 41790U 16059H   25344.15343572  .00002364  00000+0  31976-3 0  9993", "line2": "2 41790  98.1464  40.7913 0056147 136.1603 224.4085 14.78922317 73641"}}, "geometry": {"type": "Point", "coordinates": [51.373755033494035, -51.16595295795638]}}, {"type": "Feature", "properties": {"norad_id": 41875, "name": "GOKTURK 1A", "group": "resource", "lat": 15.886676439235769, "lon": 59.21220756842871, "alt_km": 684.8946368349707, "timestamp": "2025-12-10T11:33:53.048801+00:00", "meta": {"OBJECT_NAME": "GOKTURK 1A", "OBJECT_ID": "2016-073A", "EPOCH": "2025-12-10T04:15:05.429088", "MEAN_MOTION": 14.6277554, "ECCENTRICITY": 0.0001259, "INCLINATION": 98.1426, "RA_OF_ASC_NODE": 236.5763, "ARG_OF_PERICENTER": 77.3041, "MEAN_ANOMALY": 282.8302, "EPHEMERIS_TYPE": 0, "CLASSIFICATION_TYPE": "U", "NORAD_CAT_ID": 41875, "ELEMENT_SET_NO": 999, "REV_AT_EPOCH": 48119, "BSTAR": 0.00020307, "MEAN_MOTION_DOT": 9.89e-06, "MEAN_MOTION_DDOT": 0}, "tle": {"line1": "1 41875U 16073A   25344.17714617  .00000989  00000+0  20307-3 0  9994", "line2": "2 41875  98.1426 236.5763 0001259  77.3041 282.8302 14.62775540481197"}}, "geometry": {"type": "Point", "coordinates": [59.21220756842871, 15.886676439235769]}}, {"type": "Feature", "properties": {"norad_id": 41877, "name": "RESOURCESAT-2A", "group": "resource", "lat": -6.878212842812101, "lon": -126.71702515816219, "alt_km": 823.5849169743351, "timestamp": "2025-12-10T11:33:53.048812+00:00", "meta": {"OBJECT_NAME": "RESOURCESAT-2A", "OBJECT_ID": "2016-074A", "EPOCH": "2025-12-10T03:55:54.118848", "MEAN_MOTION": 14.21598271, "ECCENTRICITY": 0.0001135, "INCLINATION": 98.7755, "RA_OF_ASC_NODE": 54.0345, "ARG_OF_PERICENTER": 268.3465, "MEAN_ANOMALY": 91.7582, "EPHEMERIS_TYPE": 0, "CLASSIFICATION_TYPE": "U", "NORAD_CAT_ID": 41877, "ELEMENT_SET_NO": 999, "REV_AT_EPOCH": 46744, "BSTAR": 0.00015758, "MEAN_MOTION_DOT": 3.01e-06, "MEAN_MOTION_DDOT": 0}, "tle": {"line1": "1 41877U 16074A   25344.16382082  .00000301  00000+0  15758-3 0  9995", "line2": "2 41877  98.7755  54.0345 0001135 268.3465  91.7582 14.21598271467442"}}, "geometry": {"type": "Point", "coordinates": [-126.71702515816219, -6.878212842812101]}}, {"type": "Feature", "properties": {"norad_id": 41948, "name": "CARTOSAT-2D", "group": "resource", "lat": 58.30288115729186, "lon": -125.77224853713105, "alt_km": 500.62239564558695, "timestamp": "2025-12-10T11:33:53.048822+00:00", "meta": {"OBJECT_NAME": "CARTOSAT-2D", "OBJECT_ID": "2017-008A", "EPOCH": "2025-12-10T04:42:41.177088", "MEAN_MOTION": 15.19212406, "ECCENTRICITY": 0.0004374, "INCLINATION": 97.4386, "RA_OF_ASC_NODE": 41.7322, "ARG_OF_PERICENTER": 170.2477, "MEAN_ANOMALY": 189.8844, "EPHEMERIS_TYPE": 0, "CLASSIFICATION_TYPE": "U", "NORAD_CAT_ID": 41948, "ELEMENT_SET_NO": 999, "REV_AT_EPOCH": 48888, "BSTAR": 0.00023307, "MEAN_MOTION_DOT": 4.84e-05, "MEAN_MOTION_DDOT": 0}, "tle": {"line1": "1 41948U 17008A   25344.19630992  .00004840  00000+0  23307-3 0  9992", "line2": "2 41948  97.4386  41.7322 0004374 170.2477 189.8844 15.19212406488889"}}, "geometry": {"type": "Point", "coordinates": [-125.77224853713105, 58.30288115729186]}}, {"type": "Feature", "properties": {"norad_id": 42063, "name": "SENTINEL-2B", "group": "resource", "lat": 77.32308766807158, "lon": 14.852063702185825, "alt_km": 780.9284193527301, "timestamp": "2025-12-10T11:33:53.048832+00:00", "meta": {"OBJECT_NAME": "SENTINEL-2B", "OBJECT_ID": "2017-013A", "EPOCH": "2025-12-10T04:28:33.798720", "MEAN_MOTION": 14.30814582, "ECCENTRICITY": 0.0001136, "INCLINATION": 98.5715, "RA_OF_ASC_NODE": 56.668, "ARG_OF_PERICENTER": 94.0571, "MEAN_ANOMALY": 266.0742, "EPHEMERIS_TYPE": 0, "CLASSIFICATION_TYPE": "U", "NORAD_CAT_ID": 42063, "ELEMENT_SET_NO": 999, "REV_AT_EPOCH": 45761, "BSTAR": 0.00011871, "MEAN_MOTION_DOT": 2.67e-06, "MEAN_MOTION_DDOT": 0}, "tle": {"line1": "1 42063U 17013A   25344.18650230  .00000267  00000+0  11871-3 0  9995", "line2": "2 42063  98.5715  56.6680 0001136  94.0571 266.0742 14.30814582457616"}}, "geometry": {"type": "Point", "coordinates": [14.852063702185825, 77.32308766807158]}}, {"type": "Feature", "properties": {"norad_id": 42767, "name": "CARTOSAT-2E", "group": "resource", "lat": 31.40417413000599, "lon": 37.51180238987292, "alt_km": 507.66238115126544, "timestamp": "2025-12-10T11:33:53.048842+00:00", "meta": {"OBJECT_NAME": "CARTOSAT-2E", "OBJECT_ID": "2017-036C", "EPOCH": "2025-12-10T03:31:19.462656", "MEAN_MOTION": 15.19277375, "ECCENTRICITY": 0.0002352, "INCLINATION": 97.4557, "RA_OF_ASC_NODE": 41.7667, "ARG_OF_PERICENTER": 248.0466, "MEAN_ANOMALY": 112.0519, "EPHEMERIS_TYPE": 0, "CLASSIFICATION_TYPE": "U", "NORAD_CAT_ID": 42767, "ELEMENT_SET_NO": 999, "REV_AT_EPOCH": 46944, "BSTAR": 0.00023108, "MEAN_MOTION_DOT": 4.806e-05, "MEAN_MOTION_DDOT": 0}, "tle": {"line1": "1 42767U 17036C   25344.14675304  .00004806  00000+0  23108-3 0  9995", "line2": "2 42767  97.4557  41.7667 0002352 248.0466 112.0519 15.19277375469441"}}, "geometry": {"type": "Point", "coordinates": [37.51180238987292, 31.40417413000599]}}, {"type": "Feature", "properties": {"norad_id": 42920, "name": "FORMOSAT-5", "group": "resource", "lat": -77.92406421885522, "lon": 101.5161543714257, "alt_km": 723.2468911432106, "timestamp": "2025-12-10T11:33:53.048852+00:00", "meta": {"OBJECT_NAME": "FORMOSAT-5", "OBJECT_ID": "2017-049A", "EPOCH": "2025-12-10T03:39:45.385632", "MEAN_MOTION": 14.51002901, "ECCENTRICITY": 0.0009985, "INCLINATION": 98.2454, "RA_OF_ASC_NODE": 58.5229, "ARG_OF_PERICENTER": 304.326, "MEAN_ANOMALY": 55.6989, "EPHEMERIS_TYPE": 0, "CLASSIFICATION_TYPE": "U", "NORAD_CAT_ID": 42920, "ELEMENT_SET_NO": 999, "REV_AT_EPOCH": 43926, "BSTAR": 0.00011038, "MEAN_MOTION_DOT": 3.93e-06, "MEAN_MOTION_DDOT": 0}, "tle": {"line1": "1 42920U 17049A   25344.15260863  .00000393  00000+0  11038-3 0  9997", "line2": "2 42920  98.2454  58.5229 0009985 304.3260  55.6989 14.51002901439260"}}, "geometry": {"type": "Point", "coordinates": [101.5161543714257, -77.92406421885522]}}]}